start=new Date('2022-09-12T00:00:00.000Z').valueOf();
sats=[{"MEAN_MOTION":"15.08863630","INCLINATION":"53.2175","MEAN_MOTION_DOT":"-0.00049490","MEAN_ANOMALY":"252.7711","ELEMENT_SET_NO":"999","DECAY_DATE":null,"OBJECT_NAME":"STARLINK-3541","GP_ID":"212358433","ECCENTRICITY":"0.00014550","REF_FRAME":"TEME","PERIOD":"95.436","RCS_SIZE":"LARGE","CENTER_NAME":"EARTH","MEAN_ELEMENT_THEORY":"SGP4","FILE":"3569361","NORAD_CAT_ID":"51854","BSTAR":"-0.00311090000000","ARG_OF_PERICENTER":"54.8658","CLASSIFICATION_TYPE":"U","EPHEMERIS_TYPE":"0","OBJECT_TYPE":"PAYLOAD","REV_AT_EPOCH":"130","TIME_SYSTEM":"UTC","TLE_LINE1":"1 51854U 22022C   22254.91667824 -.00049490  00000-0 -31109-2 0  9993","TLE_LINE2":"2 51854  53.2175 341.7951 0001455  54.8658 252.7711 15.08863630  1308","PERIAPSIS":"538.667","SEMIMAJOR_AXIS":"6917.808","EPOCH":"2022-09-11T22:00:00.999936","MEAN_MOTION_DDOT":"0.0000000000000","OBJECT_ID":"2022-022C","RA_OF_ASC_NODE":"341.7951","SITE":"AFETR","LAUNCH_DATE":"2022-03-03","COUNTRY_CODE":"US","APOAPSIS":"540.680"},{"RCS_SIZE":"LARGE","PERIOD":"95.436","CENTER_NAME":"EARTH","GP_ID":"212357183","ECCENTRICITY":"0.00015990","REF_FRAME":"TEME","BSTAR":"-0.00339770000000","CLASSIFICATION_TYPE":"U","ARG_OF_PERICENTER":"55.1655","MEAN_ELEMENT_THEORY":"SGP4","FILE":"3569361","NORAD_CAT_ID":"51855","MEAN_ANOMALY":"292.4795","MEAN_MOTION":"15.08860205","INCLINATION":"53.2184","MEAN_MOTION_DOT":"-0.00053987","OBJECT_NAME":"STARLINK-3545","ELEMENT_SET_NO":"999","DECAY_DATE":null,"RA_OF_ASC_NODE":"341.7965","OBJECT_ID":"2022-022D","COUNTRY_CODE":"US","APOAPSIS":"540.790","SITE":"AFETR","LAUNCH_DATE":"2022-03-03","OBJECT_TYPE":"PAYLOAD","REV_AT_EPOCH":"130","EPHEMERIS_TYPE":"0","TLE_LINE2":"2 51855  53.2184 341.7965 0001599  55.1655 292.4795 15.08860205  1302","TLE_LINE1":"1 51855U 22022D   22254.91667824 -.00053987  00000-0 -33977-2 0  9995","MEAN_MOTION_DDOT":"0.0000000000000","PERIAPSIS":"538.577","SEMIMAJOR_AXIS":"6917.819","EPOCH":"2022-09-11T22:00:00.999936","TIME_SYSTEM":"UTC"},{"RCS_SIZE":"LARGE","PERIOD":"95.436","CENTER_NAME":"EARTH","REF_FRAME":"TEME","GP_ID":"212357933","ECCENTRICITY":"0.00013110","BSTAR":"-0.00382100000000","ARG_OF_PERICENTER":"63.1143","CLASSIFICATION_TYPE":"U","FILE":"3569361","NORAD_CAT_ID":"51856","MEAN_ELEMENT_THEORY":"SGP4","MEAN_ANOMALY":"264.5812","MEAN_MOTION_DOT":"-0.00060619","MEAN_MOTION":"15.08859121","INCLINATION":"53.2179","OBJECT_NAME":"STARLINK-3568","ELEMENT_SET_NO":"999","DECAY_DATE":null,"RA_OF_ASC_NODE":"341.8024","OBJECT_ID":"2022-022E","APOAPSIS":"540.594","COUNTRY_CODE":"US","LAUNCH_DATE":"2022-03-03","SITE":"AFETR","REV_AT_EPOCH":"130","OBJECT_TYPE":"PAYLOAD","EPHEMERIS_TYPE":"0","SEMIMAJOR_AXIS":"6917.822","PERIAPSIS":"538.780","EPOCH":"2022-09-11T22:00:00.999936","MEAN_MOTION_DDOT":"0.0000000000000","TLE_LINE1":"1 51856U 22022E   22254.91667824 -.00060619  00000-0 -38210-2 0  9991","TLE_LINE2":"2 51856  53.2179 341.8024 0001311  63.1143 264.5812 15.08859121  1302","TIME_SYSTEM":"UTC"},{"BSTAR":"0.00262930000000","CLASSIFICATION_TYPE":"U","ARG_OF_PERICENTER":"63.2781","MEAN_ELEMENT_THEORY":"SGP4","FILE":"3569361","NORAD_CAT_ID":"51857","RCS_SIZE":"LARGE","PERIOD":"95.440","CENTER_NAME":"EARTH","REF_FRAME":"TEME","GP_ID":"212358185","ECCENTRICITY":"0.00014660","OBJECT_NAME":"STARLINK-3571","ELEMENT_SET_NO":"999","DECAY_DATE":null,"MEAN_ANOMALY":"324.3490","MEAN_MOTION":"15.08805497","INCLINATION":"53.2176","MEAN_MOTION_DOT":"0.00041766","COUNTRY_CODE":"US","APOAPSIS":"540.865","SITE":"AFETR","LAUNCH_DATE":"2022-03-03","RA_OF_ASC_NODE":"341.7932","OBJECT_ID":"2022-022F","TLE_LINE1":"1 51857U 22022F   22254.91667824  .00041766  00000-0  26293-2 0  9990","TLE_LINE2":"2 51857  53.2176 341.7932 0001466  63.2781 324.3490 15.08805497  1301","MEAN_MOTION_DDOT":"0.0000000000000","PERIAPSIS":"538.837","SEMIMAJOR_AXIS":"6917.986","EPOCH":"2022-09-11T22:00:00.999936","TIME_SYSTEM":"UTC","OBJECT_TYPE":"PAYLOAD","REV_AT_EPOCH":"130","EPHEMERIS_TYPE":"0"},{"COUNTRY_CODE":"US","APOAPSIS":"540.815","SITE":"AFETR","LAUNCH_DATE":"2022-03-03","RA_OF_ASC_NODE":"341.7924","OBJECT_ID":"2022-022G","TLE_LINE2":"2 51858  53.2174 341.7924 0001547  69.5917 298.0148 15.08840254  1308","TLE_LINE1":"1 51858U 22022G   22254.91667824 -.00006815  00000-0 -41049-3 0  9996","SEMIMAJOR_AXIS":"6917.880","PERIAPSIS":"538.674","MEAN_MOTION_DDOT":"0.0000000000000","EPOCH":"2022-09-11T22:00:00.999936","TIME_SYSTEM":"UTC","OBJECT_TYPE":"PAYLOAD","REV_AT_EPOCH":"130","EPHEMERIS_TYPE":"0","CLASSIFICATION_TYPE":"U","BSTAR":"-0.00041049000000","ARG_OF_PERICENTER":"69.5917","MEAN_ELEMENT_THEORY":"SGP4","FILE":"3569361","NORAD_CAT_ID":"51858","RCS_SIZE":"LARGE","PERIOD":"95.438","CENTER_NAME":"EARTH","REF_FRAME":"TEME","GP_ID":"212358933","ECCENTRICITY":"0.00015470","OBJECT_NAME":"STARLINK-3563","ELEMENT_SET_NO":"999","DECAY_DATE":null,"MEAN_ANOMALY":"298.0148","MEAN_MOTION":"15.08840254","INCLINATION":"53.2174","MEAN_MOTION_DOT":"-0.00006815"},{"TIME_SYSTEM":"UTC","PERIAPSIS":"538.547","MEAN_MOTION_DDOT":"0.0000000000000","SEMIMAJOR_AXIS":"6917.789","EPOCH":"2022-09-11T22:00:00.999936","TLE_LINE1":"1 51859U 22022H   22254.91667824 -.00062701  00000-0 -39528-2 0  9991","TLE_LINE2":"2 51859  53.2162 331.7885 0001601  49.8223 232.7929 15.08869838  1304","EPHEMERIS_TYPE":"0","REV_AT_EPOCH":"130","OBJECT_TYPE":"PAYLOAD","LAUNCH_DATE":"2022-03-03","SITE":"AFETR","APOAPSIS":"540.762","COUNTRY_CODE":"US","OBJECT_ID":"2022-022H","RA_OF_ASC_NODE":"331.7885","DECAY_DATE":null,"ELEMENT_SET_NO":"999","OBJECT_NAME":"STARLINK-3560","MEAN_MOTION_DOT":"-0.00062701","INCLINATION":"53.2162","MEAN_MOTION":"15.08869838","MEAN_ANOMALY":"232.7929","NORAD_CAT_ID":"51859","FILE":"3569361","MEAN_ELEMENT_THEORY":"SGP4","CLASSIFICATION_TYPE":"U","BSTAR":"-0.00395280000000","ARG_OF_PERICENTER":"49.8223","GP_ID":"212357683","ECCENTRICITY":"0.00016010","REF_FRAME":"TEME","RCS_SIZE":"LARGE","PERIOD":"95.436","CENTER_NAME":"EARTH"},{"COUNTRY_CODE":"US","APOAPSIS":"540.848","SITE":"AFETR","LAUNCH_DATE":"2022-03-03","RA_OF_ASC_NODE":"331.7890","OBJECT_ID":"2022-022J","TLE_LINE2":"2 51860  53.2170 331.7890 0001623  52.7364 189.8753 15.08846757  1306","TLE_LINE1":"1 51860U 22022J   22254.91667824 -.00016922  00000-0 -10474-2 0  9996","PERIAPSIS":"538.602","SEMIMAJOR_AXIS":"6917.860","MEAN_MOTION_DDOT":"0.0000000000000","EPOCH":"2022-09-11T22:00:00.999936","TIME_SYSTEM":"UTC","OBJECT_TYPE":"PAYLOAD","REV_AT_EPOCH":"130","EPHEMERIS_TYPE":"0","ARG_OF_PERICENTER":"52.7364","BSTAR":"-0.00104740000000","CLASSIFICATION_TYPE":"U","MEAN_ELEMENT_THEORY":"SGP4","NORAD_CAT_ID":"51860","FILE":"3569361","RCS_SIZE":"LARGE","PERIOD":"95.437","CENTER_NAME":"EARTH","ECCENTRICITY":"0.00016230","GP_ID":"212357434","REF_FRAME":"TEME","OBJECT_NAME":"STARLINK-3559","ELEMENT_SET_NO":"999","DECAY_DATE":null,"MEAN_ANOMALY":"189.8753","INCLINATION":"53.2170","MEAN_MOTION":"15.08846757","MEAN_MOTION_DOT":"-0.00016922"},{"APOAPSIS":"540.745","COUNTRY_CODE":"US","LAUNCH_DATE":"2022-03-03","SITE":"AFETR","RA_OF_ASC_NODE":"331.7924","OBJECT_ID":"2022-022K","SEMIMAJOR_AXIS":"6917.884","PERIAPSIS":"538.754","MEAN_MOTION_DDOT":"0.0000000000000","EPOCH":"2022-09-11T22:00:00.999936","TLE_LINE2":"2 51861  53.2167 331.7924 0001439  52.1137 270.5611 15.08838803  1302","TLE_LINE1":"1 51861U 22022K   22254.91667824 -.00016481  00000-0 -10198-2 0  9990","TIME_SYSTEM":"UTC","REV_AT_EPOCH":"130","OBJECT_TYPE":"PAYLOAD","EPHEMERIS_TYPE":"0","BSTAR":"-0.00101980000000","ARG_OF_PERICENTER":"52.1137","CLASSIFICATION_TYPE":"U","NORAD_CAT_ID":"51861","FILE":"3569361","MEAN_ELEMENT_THEORY":"SGP4","PERIOD":"95.438","RCS_SIZE":"LARGE","CENTER_NAME":"EARTH","REF_FRAME":"TEME","GP_ID":"212358685","ECCENTRICITY":"0.00014390","OBJECT_NAME":"STARLINK-3562","DECAY_DATE":null,"ELEMENT_SET_NO":"999","MEAN_ANOMALY":"270.5611","MEAN_MOTION_DOT":"-0.00016481","INCLINATION":"53.2167","MEAN_MOTION":"15.08838803"},{"DECAY_DATE":null,"ELEMENT_SET_NO":"999","OBJECT_NAME":"STARLINK-3508","INCLINATION":"53.2185","MEAN_MOTION":"15.08842547","MEAN_MOTION_DOT":"-0.00018500","MEAN_ANOMALY":"204.4454","MEAN_ELEMENT_THEORY":"SGP4","NORAD_CAT_ID":"51862","FILE":"3569361","BSTAR":"-0.00114720000000","CLASSIFICATION_TYPE":"U","ARG_OF_PERICENTER":"58.2109","GP_ID":"212358434","REF_FRAME":"TEME","ECCENTRICITY":"0.00014040","RCS_SIZE":"LARGE","PERIOD":"95.437","CENTER_NAME":"EARTH","TIME_SYSTEM":"UTC","TLE_LINE2":"2 51862  53.2185 331.7961 0001404  58.2109 204.4454 15.08842547  1303","TLE_LINE1":"1 51862U 22022L   22254.91667824 -.00018500  00000-0 -11472-2 0  9991","PERIAPSIS":"538.766","SEMIMAJOR_AXIS":"6917.873","EPOCH":"2022-09-11T22:00:00.999936","MEAN_MOTION_DDOT":"0.0000000000000","EPHEMERIS_TYPE":"0","OBJECT_TYPE":"PAYLOAD","REV_AT_EPOCH":"130","SITE":"AFETR","LAUNCH_DATE":"2022-03-03","COUNTRY_CODE":"US","APOAPSIS":"540.709","OBJECT_ID":"2022-022L","RA_OF_ASC_NODE":"331.7961"},{"TIME_SYSTEM":"UTC","PERIAPSIS":"538.702","SEMIMAJOR_AXIS":"6917.847","EPOCH":"2022-09-11T22:00:00.999936","MEAN_MOTION_DDOT":"0.0000000000000","TLE_LINE2":"2 51863  53.2174 331.8041 0001460  59.9811 302.7119 15.08850810  1304","TLE_LINE1":"1 51863U 22022M   22254.91667824 -.00049366  00000-0 -31041-2 0  9990","EPHEMERIS_TYPE":"0","REV_AT_EPOCH":"130","OBJECT_TYPE":"PAYLOAD","LAUNCH_DATE":"2022-03-03","SITE":"AFETR","APOAPSIS":"540.722","COUNTRY_CODE":"US","OBJECT_ID":"2022-022M","RA_OF_ASC_NODE":"331.8041","ELEMENT_SET_NO":"999","DECAY_DATE":null,"OBJECT_NAME":"STARLINK-3555","MEAN_MOTION_DOT":"-0.00049366","MEAN_MOTION":"15.08850810","INCLINATION":"53.2174","MEAN_ANOMALY":"302.7119","FILE":"3569361","NORAD_CAT_ID":"51863","MEAN_ELEMENT_THEORY":"SGP4","ARG_OF_PERICENTER":"59.9811","BSTAR":"-0.00310410000000","CLASSIFICATION_TYPE":"U","GP_ID":"212357184","REF_FRAME":"TEME","ECCENTRICITY":"0.00014600","PERIOD":"95.437","RCS_SIZE":"LARGE","CENTER_NAME":"EARTH"}];
